{
  "type": "FeatureCollection",
  "features": [
    {
      "type": "Feature",
      "properties": {
        "norad_id": 41599,
        "name": "CARTOSAT-2C",
        "group": "resource",
        "lat": 18.216556899097707,
        "lon": -128.0360828659545,
        "alt_km": 512.0990298063834,
        "timestamp": "2025-12-18T07:01:54.245045+00:00",
        "meta_object_name": "CARTOSAT-2C",
        "meta_object_id": "2016-040A",
        "meta_epoch": "2025-12-17T22:25:11.495712",
        "meta_mean_motion": 15.19161701,
        "meta_eccentricity": 0.00111729,
        "meta_inclination": 97.476,
        "meta_ra_of_asc_node": 49.1319,
        "meta_arg_of_pericenter": 47.3383,
        "meta_mean_anomaly": 312.8791,
        "meta_ephemeris_type": 0,
        "meta_classification_type": "U",
        "meta_norad_cat_id": 41599,
        "meta_element_set_no": 999,
        "meta_rev_at_epoch": 52619,
        "meta_bstar": 0.00014788745,
        "meta_mean_motion_dot": 3.044e-05,
        "meta_mean_motion_ddot": 0,
        "tle_line1": "1 41599U 16040A   25351.93416083  .00003044  00000+0  14789-3 0  9991",
        "tle_line2": "2 41599  97.4760  49.1319 0011172  47.3383 312.8791 15.19161701526196"
      },
      "geometry": {
        "type": "Point",
        "coordinates": [
          -128.0360828659545,
          18.216556899097707
        ]
      }
    },
    {
      "type": "Feature",
      "properties": {
        "norad_id": 41601,
        "name": "SKYSAT-C1",
        "group": "resource",
        "lat": 55.200090521505714,
        "lon": -140.84960057059715,
        "alt_km": 463.353121332977,
        "timestamp": "2025-12-18T07:01:54.245055+00:00",
        "meta_object_name": "SKYSAT-C1",
        "meta_object_id": "2016-040C",
        "meta_epoch": "2025-12-17T16:23:24.027936",
        "meta_mean_motion": 15.32679137,
        "meta_eccentricity": 0.00018049,
        "meta_inclination": 96.9821,
        "meta_ra_of_asc_node": 28.4184,
        "meta_arg_of_pericenter": 359.1942,
        "meta_mean_anomaly": 0.9298,
        "meta_ephemeris_type": 0,
        "meta_classification_type": "U",
        "meta_norad_cat_id": 41601,
        "meta_element_set_no": 999,
        "meta_rev_at_epoch": 53003,
        "meta_bstar": 0.00023863164,
        "meta_mean_motion_dot": 7.459e-05,
        "meta_mean_motion_ddot": 0,
        "tle_line1": "1 41601U 16040C   25351.68291699  .00007459  00000+0  23863-3 0  9998",
        "tle_line2": "2 41601  96.9821  28.4184 0001804 359.1942   0.9298 15.32679137530035"
      },
      "geometry": {
        "type": "Point",
        "coordinates": [
          -140.84960057059715,
          55.200090521505714
        ]
      }
    },
    {
      "type": "Feature",
      "properties": {
        "norad_id": 41603,
        "name": "LAPAN-A3",
        "group": "resource",
        "lat": -65.55503384466816,
        "lon": 153.63439313755902,
        "alt_km": 475.69024298661407,
        "timestamp": "2025-12-18T07:01:54.245066+00:00",
        "meta_object_name": "LAPAN-A3",
        "meta_object_id": "2016-040E",
        "meta_epoch": "2025-12-17T23:41:08.857248",
        "meta_mean_motion": 15.31594094,
        "meta_eccentricity": 0.0009135,
        "meta_inclination": 97.1423,
        "meta_ra_of_asc_node": 349.3524,
        "meta_arg_of_pericenter": 312.838,
        "meta_mean_anomaly": 47.2093,
        "meta_ephemeris_type": 0,
        "meta_classification_type": "U",
        "meta_norad_cat_id": 41603,
        "meta_element_set_no": 999,
        "meta_rev_at_epoch": 52706,
        "meta_bstar": 0.00011106052,
        "meta_mean_motion_dot": 3.317e-05,
        "meta_mean_motion_ddot": 0,
        "tle_line1": "1 41603U 16040E   25351.98690807  .00003317  00000+0  11106-3 0  9993",
        "tle_line2": "2 41603  97.1423 349.3524 0009135 312.8380  47.2093 15.31594094527061"
      },
      "geometry": {
        "type": "Point",
        "coordinates": [
          153.63439313755902,
          -65.55503384466816
        ]
      }
    },
    {
      "type": "Feature",
      "properties": {
        "norad_id": 41604,
        "name": "BIROS",
        "group": "resource",
        "lat": 7.747631962447975,
        "lon": -155.0758448961455,
        "alt_km": 297.3465676425885,
        "timestamp": "2025-12-18T07:01:54.245076+00:00",
        "meta_object_name": "BIROS",
        "meta_object_id": "2016-040F",
        "meta_epoch": "2025-12-17T15:13:21.855072",
        "meta_mean_motion": 15.91577007,
        "meta_eccentricity": 0.0003703,
        "meta_inclination": 97.0677,
        "meta_ra_of_asc_node": 23.2697,
        "meta_arg_of_pericenter": 135.7681,
        "meta_mean_anomaly": 224.389,
        "meta_ephemeris_type": 0,
        "meta_classification_type": "U",
        "meta_norad_cat_id": 41604,
        "meta_element_set_no": 999,
        "meta_rev_at_epoch": 52950,
        "meta_bstar": 0.00056136978,
        "meta_mean_motion_dot": 0.00180274,
        "meta_mean_motion_ddot": 1.3913944e-05,
        "tle_line1": "1 41604U 16040F   25351.63428073  .00180274  13914-4  56137-3 0  9994",
        "tle_line2": "2 41604  97.0677  23.2697 0003703 135.7681 224.3890 15.91577007529507"
      },
      "geometry": {
        "type": "Point",
        "coordinates": [
          -155.0758448961455,
          7.747631962447975
        ]
      }
    },
    {
      "type": "Feature",
      "properties": {
        "norad_id": 41727,
        "name": "GAOFEN-3",
        "group": "resource",
        "lat": 39.927846024187964,
        "lon": -9.312284149531106,
        "alt_km": 747.2092959682341,
        "timestamp": "2025-12-18T07:01:54.245086+00:00",
        "meta_object_name": "GAOFEN-3",
        "meta_object_id": "2016-049A",
        "meta_epoch": "2025-12-18T00:11:04.362432",
        "meta_mean_motion": 14.42215077,
        "meta_eccentricity": 0.00012673,
        "meta_inclination": 98.4037,
        "meta_ra_of_asc_node": 357.514,
        "meta_arg_of_pericenter": 58.7158,
        "meta_mean_anomaly": 301.4156,
        "meta_ephemeris_type": 0,
        "meta_classification_type": "U",
        "meta_norad_cat_id": 41727,
        "meta_element_set_no": 999,
        "meta_rev_at_epoch": 49253,
        "meta_bstar": 3.7821485e-05,
        "meta_mean_motion_dot": 8.1e-07,
        "meta_mean_motion_ddot": 0,
        "tle_line1": "1 41727U 16049A   25352.00768938  .00000081  00000+0  37821-4 0  9992",
        "tle_line2": "2 41727  98.4037 357.5140 0001267  58.7158 301.4156 14.42215077492535"
      },
      "geometry": {
        "type": "Point",
        "coordinates": [
          -9.312284149531106,
          39.927846024187964
        ]
      }
    },
    {
      "type": "Feature",
      "properties": {
        "norad_id": 41771,
        "name": "SKYSAT-C4",
        "group": "resource",
        "lat": -71.45774191108033,
        "lon": 175.92721936196196,
        "alt_km": 447.07517909371654,
        "timestamp": "2025-12-18T07:01:54.245096+00:00",
        "meta_object_name": "SKYSAT-C4",
        "meta_object_id": "2016-058B",
        "meta_epoch": "2025-12-17T14:22:08.091264",
        "meta_mean_motion": 15.42388294,
        "meta_eccentricity": 0.00019426,
        "meta_inclination": 96.9369,
        "meta_ra_of_asc_node": 16.5506,
        "meta_arg_of_pericenter": 131.7444,
        "meta_mean_anomaly": 228.3971,
        "meta_ephemeris_type": 0,
        "meta_classification_type": "U",
        "meta_norad_cat_id": 41771,
        "meta_element_set_no": 999,
        "meta_rev_at_epoch": 51742,
        "meta_bstar": 0.00028161381,
        "meta_mean_motion_dot": 0.00012085,
        "meta_mean_motion_ddot": 0,
        "tle_line1": "1 41771U 16058B   25351.59870476  .00012085  00000+0  28161-3 0  9998",
        "tle_line2": "2 41771  96.9369  16.5506 0001942 131.7444 228.3971 15.42388294517424"
      },
      "geometry": {
        "type": "Point",
        "coordinates": [
          175.92721936196196,
          -71.45774191108033
        ]
      }
    },
    {
      "type": "Feature",
      "properties": {
        "norad_id": 41772,
        "name": "SKYSAT-C5",
        "group": "resource",
        "lat": 3.887937998972762,
        "lon": 35.32988355387949,
        "alt_km": 466.85093920284453,
        "timestamp": "2025-12-18T07:01:54.245107+00:00",
        "meta_object_name": "SKYSAT-C5",
        "meta_object_id": "2016-058C",
        "meta_epoch": "2025-12-17T18:29:23.948448",
        "meta_mean_motion": 15.33964959,
        "meta_eccentricity": 0.00037641,
        "meta_inclination": 97.0757,
        "meta_ra_of_asc_node": 35.3128,
        "meta_arg_of_pericenter": 269.6367,
        "meta_mean_anomaly": 90.4445,
        "meta_ephemeris_type": 0,
        "meta_classification_type": "U",
        "meta_norad_cat_id": 41772,
        "meta_element_set_no": 999,
        "meta_rev_at_epoch": 51593,
        "meta_bstar": 0.00022831644,
        "meta_mean_motion_dot": 7.429e-05,
        "meta_mean_motion_ddot": 0,
        "tle_line1": "1 41772U 16058C   25351.77041607  .00007429  00000+0  22832-3 0  9990",
        "tle_line2": "2 41772  97.0757  35.3128 0003764 269.6367  90.4445 15.33964959515932"
      },
      "geometry": {
        "type": "Point",
        "coordinates": [
          35.32988355387949,
          3.887937998972762
        ]
      }
    }
  ]
}